[{"OBJECT_NAME":"2026-052C","OBJECT_ID":"2026-052C","EPOCH":"2026-04-04T19:55:37.711776","MEAN_MOTION":15.1031171,"ECCENTRICITY":0.0012399,"INCLINATION":97.5349,"RA_OF_ASC_NODE":170.7717,"ARG_OF_PERICENTER":197.8051,"MEAN_ANOMALY":162.2746,"EPHEMERIS_TYPE":0,"CLASSIFICATION_TYPE":"U","NORAD_CAT_ID":68200,"ELEMENT_SET_NO":999,"REV_AT_EPOCH":296,"BSTAR":0.00048277,"MEAN_MOTION_DOT":7.864e-5,"MEAN_MOTION_DDOT":0},{"OBJECT_NAME":"2026-052D","OBJECT_ID":"2026-052D","EPOCH":"2026-04-04T19:52:03.846720","MEAN_MOTION":15.10567882,"ECCENTRICITY":0.0011621,"INCLINATION":97.5355,"RA_OF_ASC_NODE":170.773,"ARG_OF_PERICENTER":194.3403,"MEAN_ANOMALY":165.7498,"EPHEMERIS_TYPE":0,"CLASSIFICATION_TYPE":"U","NORAD_CAT_ID":68201,"ELEMENT_SET_NO":999,"REV_AT_EPOCH":297,"BSTAR":0.00069545,"MEAN_MOTION_DOT":0.00011441,"MEAN_MOTION_DDOT":0},{"OBJECT_NAME":"2026-052E","OBJECT_ID":"2026-052E","EPOCH":"2026-04-04T11:55:05.693952","MEAN_MOTION":15.10559593,"ECCENTRICITY":0.00112507,"INCLINATION":97.5348,"RA_OF_ASC_NODE":170.4486,"ARG_OF_PERICENTER":200.0561,"MEAN_ANOMALY":160.0228,"EPHEMERIS_TYPE":0,"CLASSIFICATION_TYPE":"U","NORAD_CAT_ID":68202,"ELEMENT_SET_NO":999,"REV_AT_EPOCH":292,"BSTAR":0.00080432902,"MEAN_MOTION_DOT":0.00013241,"MEAN_MOTION_DDOT":0},{"OBJECT_NAME":"2026-052F","OBJECT_ID":"2026-052F","EPOCH":"2026-04-04T21:22:40.041408","MEAN_MOTION":15.10824582,"ECCENTRICITY":0.0010615,"INCLINATION":97.5349,"RA_OF_ASC_NODE":170.8477,"ARG_OF_PERICENTER":190.6352,"MEAN_ANOMALY":169.4655,"EPHEMERIS_TYPE":0,"CLASSIFICATION_TYPE":"U","NORAD_CAT_ID":68203,"ELEMENT_SET_NO":999,"REV_AT_EPOCH":298,"BSTAR":0.00059914,"MEAN_MOTION_DOT":9.913e-5,"MEAN_MOTION_DDOT":0},{"OBJECT_NAME":"2026-052G","OBJECT_ID":"2026-052G","EPOCH":"2026-04-04T21:21:45.887616","MEAN_MOTION":15.10872807,"ECCENTRICITY":0.0010273,"INCLINATION":97.536,"RA_OF_ASC_NODE":170.844,"ARG_OF_PERICENTER":193.08,"MEAN_ANOMALY":167.0165,"EPHEMERIS_TYPE":0,"CLASSIFICATION_TYPE":"U","NORAD_CAT_ID":68204,"ELEMENT_SET_NO":999,"REV_AT_EPOCH":298,"BSTAR":0.00070367,"MEAN_MOTION_DOT":0.00011671,"MEAN_MOTION_DDOT":0},{"OBJECT_NAME":"KZ-11 R/B","OBJECT_ID":"2026-052H","EPOCH":"2026-04-04T20:37:17.590368","MEAN_MOTION":14.6767749,"ECCENTRICITY":0.054376,"INCLINATION":97.3398,"RA_OF_ASC_NODE":169.5033,"ARG_OF_PERICENTER":309.1345,"MEAN_ANOMALY":46.2704,"EPHEMERIS_TYPE":0,"CLASSIFICATION_TYPE":"U","NORAD_CAT_ID":68205,"ELEMENT_SET_NO":999,"REV_AT_EPOCH":289,"BSTAR":0.0004378,"MEAN_MOTION_DOT":0.00029153,"MEAN_MOTION_DDOT":2.0355e-6},{"OBJECT_NAME":"2026-052J","OBJECT_ID":"2026-052J","EPOCH":"2026-04-04T20:24:07.762176","MEAN_MOTION":14.69364802,"ECCENTRICITY":0.0537489,"INCLINATION":97.3394,"RA_OF_ASC_NODE":169.5134,"ARG_OF_PERICENTER":309.1236,"MEAN_ANOMALY":46.3336,"EPHEMERIS_TYPE":0,"CLASSIFICATION_TYPE":"U","NORAD_CAT_ID":68206,"ELEMENT_SET_NO":999,"REV_AT_EPOCH":289,"BSTAR":0.0013268,"MEAN_MOTION_DOT":0.00091243,"MEAN_MOTION_DDOT":3.2019e-6},{"OBJECT_NAME":"STARLINK-36986","OBJECT_ID":"2026-053A","EPOCH":"2026-04-04T21:02:50.673696","MEAN_MOTION":15.8077747,"ECCENTRICITY":0.0001323,"INCLINATION":97.2842,"RA_OF_ASC_NODE":330.4686,"ARG_OF_PERICENTER":85.1605,"MEAN_ANOMALY":274.9814,"EPHEMERIS_TYPE":0,"CLASSIFICATION_TYPE":"U","NORAD_CAT_ID":68207,"ELEMENT_SET_NO":999,"REV_AT_EPOCH":419,"BSTAR":0.00057582,"MEAN_MOTION_DOT":0.00111377,"MEAN_MOTION_DDOT":0},{"OBJECT_NAME":"STARLINK-37009","OBJECT_ID":"2026-053B","EPOCH":"2026-04-04T19:30:35.009280","MEAN_MOTION":15.80873193,"ECCENTRICITY":0.0001554,"INCLINATION":97.2842,"RA_OF_ASC_NODE":330.4021,"ARG_OF_PERICENTER":89.3827,"MEAN_ANOMALY":270.7619,"EPHEMERIS_TYPE":0,"CLASSIFICATION_TYPE":"U","NORAD_CAT_ID":68208,"ELEMENT_SET_NO":999,"REV_AT_EPOCH":418,"BSTAR":0.00083359,"MEAN_MOTION_DOT":0.00162974,"MEAN_MOTION_DDOT":0},{"OBJECT_NAME":"STARLINK-36948","OBJECT_ID":"2026-053C","EPOCH":"2026-04-04T19:29:31.243488","MEAN_MOTION":15.80784464,"ECCENTRICITY":0.000179,"INCLINATION":97.2838,"RA_OF_ASC_NODE":330.4039,"ARG_OF_PERICENTER":121.7319,"MEAN_ANOMALY":238.4124,"EPHEMERIS_TYPE":0,"CLASSIFICATION_TYPE":"U","NORAD_CAT_ID":68209,"ELEMENT_SET_NO":999,"REV_AT_EPOCH":416,"BSTAR":0.00039237,"MEAN_MOTION_DOT":0.00075563,"MEAN_MOTION_DDOT":0},{"OBJECT_NAME":"STARLINK-37119","OBJECT_ID":"2026-053D","EPOCH":"2026-04-04T19:28:26.268960","MEAN_MOTION":15.8079106,"ECCENTRICITY":0.0001348,"INCLINATION":97.2844,"RA_OF_ASC_NODE":330.4038,"ARG_OF_PERICENTER":99.3319,"MEAN_ANOMALY":260.8101,"EPHEMERIS_TYPE":0,"CLASSIFICATION_TYPE":"U","NORAD_CAT_ID":68210,"ELEMENT_SET_NO":999,"REV_AT_EPOCH":418,"BSTAR":0.00048783,"MEAN_MOTION_DOT":0.00094208,"MEAN_MOTION_DDOT":0},{"OBJECT_NAME":"STARLINK-37120","OBJECT_ID":"2026-053E","EPOCH":"2026-04-04T19:27:21.392064","MEAN_MOTION":15.80766132,"ECCENTRICITY":0.0001309,"INCLINATION":97.2839,"RA_OF_ASC_NODE":330.4039,"ARG_OF_PERICENTER":77.0201,"MEAN_ANOMALY":283.1213,"EPHEMERIS_TYPE":0,"CLASSIFICATION_TYPE":"U","NORAD_CAT_ID":68211,"ELEMENT_SET_NO":999,"REV_AT_EPOCH":416,"BSTAR":0.00016311,"MEAN_MOTION_DOT":0.00031142,"MEAN_MOTION_DDOT":0},{"OBJECT_NAME":"STARLINK-37117","OBJECT_ID":"2026-053F","EPOCH":"2026-04-04T19:26:16.142784","MEAN_MOTION":15.80774005,"ECCENTRICITY":0.0002542,"INCLINATION":97.2828,"RA_OF_ASC_NODE":330.4061,"ARG_OF_PERICENTER":130.6032,"MEAN_ANOMALY":229.5458,"EPHEMERIS_TYPE":0,"CLASSIFICATION_TYPE":"U","NORAD_CAT_ID":68212,"ELEMENT_SET_NO":999,"REV_AT_EPOCH":418,"BSTAR":9.47e-5,"MEAN_MOTION_DOT":0.00018003,"MEAN_MOTION_DDOT":0},{"OBJECT_NAME":"STARLINK-37116","OBJECT_ID":"2026-053G","EPOCH":"2026-04-04T19:25:11.735904","MEAN_MOTION":15.80793344,"ECCENTRICITY":0.0002296,"INCLINATION":97.2837,"RA_OF_ASC_NODE":330.4073,"ARG_OF_PERICENTER":113.116,"MEAN_ANOMALY":247.035,"EPHEMERIS_TYPE":0,"CLASSIFICATION_TYPE":"U","NORAD_CAT_ID":68213,"ELEMENT_SET_NO":999,"REV_AT_EPOCH":418,"BSTAR":0.00063813,"MEAN_MOTION_DOT":0.00123719,"MEAN_MOTION_DDOT":0},{"OBJECT_NAME":"STARLINK-35854","OBJECT_ID":"2026-053H","EPOCH":"2026-04-04T20:55:16.467168","MEAN_MOTION":15.80740732,"ECCENTRICITY":0.0001532,"INCLINATION":97.2838,"RA_OF_ASC_NODE":330.4739,"ARG_OF_PERICENTER":122.7892,"MEAN_ANOMALY":237.3524,"EPHEMERIS_TYPE":0,"CLASSIFICATION_TYPE":"U","NORAD_CAT_ID":68214,"ELEMENT_SET_NO":999,"REV_AT_EPOCH":417,"BSTAR":0.00036302,"MEAN_MOTION_DOT":0.00069713,"MEAN_MOTION_DDOT":0},{"OBJECT_NAME":"STARLINK-36272","OBJECT_ID":"2026-053J","EPOCH":"2026-04-04T20:00:01.999008","MEAN_MOTION":15.68959311,"ECCENTRICITY":0.0001543,"INCLINATION":97.284,"RA_OF_ASC_NODE":330.4103,"ARG_OF_PERICENTER":86.9849,"MEAN_ANOMALY":358.8023,"EPHEMERIS_TYPE":0,"CLASSIFICATION_TYPE":"U","NORAD_CAT_ID":68215,"ELEMENT_SET_NO":999,"REV_AT_EPOCH":410,"BSTAR":-0.019858,"MEAN_MOTION_DOT":-0.02009737,"MEAN_MOTION_DDOT":0},{"OBJECT_NAME":"STARLINK-37014","OBJECT_ID":"2026-053K","EPOCH":"2026-04-04T19:21:56.693952","MEAN_MOTION":15.80810528,"ECCENTRICITY":0.0002187,"INCLINATION":97.2836,"RA_OF_ASC_NODE":330.4094,"ARG_OF_PERICENTER":134.0496,"MEAN_ANOMALY":226.0952,"EPHEMERIS_TYPE":0,"CLASSIFICATION_TYPE":"U","NORAD_CAT_ID":68216,"ELEMENT_SET_NO":999,"REV_AT_EPOCH":418,"BSTAR":0.00073297,"MEAN_MOTION_DOT":0.00142546,"MEAN_MOTION_DDOT":0}]
